XRISM                   
1 57800U 23137A   24262.07476000  .00012850  00000+0  92935-3 0  9992
2 57800  31.0028 140.7253 0009280  44.6415 315.4968 15.02825445 56666
